[{"OBJECT_NAME":"STARLINK-1568","OBJECT_ID":"2020-055BF","EPOCH":"2026-03-09T07:11:52.075392","MEAN_MOTION":15.46537156,"ECCENTRICITY":0.00059127,"INCLINATION":53.0625,"RA_OF_ASC_NODE":34.8379,"ARG_OF_PERICENTER":113.1851,"MEAN_ANOMALY":246.9779,"EPHEMERIS_TYPE":0,"CLASSIFICATION_TYPE":"U","NORAD_CAT_ID":46080,"ELEMENT_SET_NO":999,"REV_AT_EPOCH":31013,"BSTAR":0.0010677195,"MEAN_MOTION_DOT":0.00053888,"MEAN_MOTION_DDOT":0},{"OBJECT_NAME":"SITRO-AIS 46","OBJECT_ID":"2024-199AR","EPOCH":"2026-03-09T22:46:46.525440","MEAN_MOTION":15.51304628,"ECCENTRICITY":0.00068268,"INCLINATION":97.307,"RA_OF_ASC_NODE":303.3786,"ARG_OF_PERICENTER":303.3302,"MEAN_ANOMALY":56.7296,"EPHEMERIS_TYPE":0,"CLASSIFICATION_TYPE":"U","NORAD_CAT_ID":61774,"ELEMENT_SET_NO":999,"REV_AT_EPOCH":11904,"BSTAR":0.00081688742,"MEAN_MOTION_DOT":0.00048106,"MEAN_MOTION_DDOT":0}]
